{
    "links": {
        "self": "http://www.neowsapp.com/rest/v1/neo/3471687?api_key=iIulBulltgU6a56xZRHN4H3l9WmuAYTsLGpBGhQ2"
    },
    "id": "3471687",
    "neo_reference_id": "3471687",
    "name": "(2009 UK1)",
    "designation": "2009 UK1",
    "nasa_jpl_url": "http://ssd.jpl.nasa.gov/sbdb.cgi?sstr=3471687",
    "absolute_magnitude_h": 26.2,
    "estimated_diameter": {
        "kilometers": {
            "estimated_diameter_min": 0.0152951935,
            "estimated_diameter_max": 0.0342010925
        },
        "meters": {
            "estimated_diameter_min": 15.2951935344,
            "estimated_diameter_max": 34.201092472
        },
        "miles": {
            "estimated_diameter_min": 0.0095039897,
            "estimated_diameter_max": 0.021251567
        },
        "feet": {
            "estimated_diameter_min": 50.1810827555,
            "estimated_diameter_max": 112.2083122258
        }
    },
    "is_potentially_hazardous_asteroid": false,
    "close_approach_data": [
        {
            "close_approach_date": "2009-10-16",
            "close_approach_date_full": "2009-Oct-16 17:45",
            "epoch_date_close_approach": 1255715100000,
            "relative_velocity": {
                "kilometers_per_second": "9.6595606917",
                "kilometers_per_hour": "34774.4184900969",
                "miles_per_hour": "21607.4713112494"
            },
            "miss_distance": {
                "astronomical": "0.013388075",
                "lunar": "5.207961175",
                "kilometers": "2002827.50340025",
                "miles": "1244499.30241345"
            },
            "orbiting_body": "Earth"
        }
    ],
    "orbital_data": {
        "orbit_id": "6",
        "orbit_determination_date": "2017-04-06 08:59:32",
        "first_observation_date": "2009-10-16",
        "last_observation_date": "2009-10-18",
        "data_arc_in_days": 2,
        "observations_used": 22,
        "orbit_uncertainty": "8",
        "minimum_orbit_intersection": ".00265677",
        "jupiter_tisserand_invariant": "3.441",
        "epoch_osculation": "2455122.5",
        "eccentricity": ".5684858371689617",
        "semi_major_axis": "2.193142186276579",
        "inclination": ".5717672940149721",
        "ascending_node_longitude": "11.15202247543004",
        "orbital_period": "1186.311144165996",
        "perihelion_distance": ".9463719144805709",
        "perihelion_argument": "45.82199346839319",
        "aphelion_distance": "3.439912458072587",
        "perihelion_time": "2455146.904877855657",
        "mean_anomaly": "352.5940542064004",
        "mean_motion": ".3034617029186623",
        "equinox": "J2000",
        "orbit_class": {
            "orbit_class_type": "APO",
            "orbit_class_description": "Near-Earth asteroid orbits which cross the Earth’s orbit similar to that of 1862 Apollo",
            "orbit_class_range": "a (semi-major axis) > 1.0 AU; q (perihelion) < 1.017 AU"
        }
    },
    "is_sentry_object": false
}